HULIANWANG DIGUI-44     
1 65047U 25162E   26195.94898233 -.00000122  00000+0  53494-5 0  9992
2 65047  49.9998 166.1217 0001426 328.8345  31.2442 13.29318630 47061
HULIANWANG DIGUI-45     
1 65048U 25162F   26195.94075801 -.00000125  00000+0 -27747-5 0  9997
2 65048  50.0027 166.1623 0000264 316.1878  43.8973 13.29327204 47053
HULIANWANG DIGUI-46     
1 65049U 25162G   26195.93242731 -.00000125  00000+0 -13509-5 0  9996
2 65049  50.0046 166.1691 0000243 312.4411  47.6441 13.29326987 47058
HULIANWANG DIGUI-47     
1 65050U 25162H   26195.92407548 -.00000126  00000+0 -38160-5 0  9997
2 65050  50.0009 166.0285 0000267 301.8866  58.1980 13.29326576 47058
HULIANWANG DIGUI-48     
1 65051U 25162J   26195.91571753 -.00000123  00000+0  13587-5 0  9999
2 65051  50.0020 166.0121 0000275 313.0354  47.0495 13.29327313 47055
HULIANWANG DIGUI-49     
1 65106U 25168A   26195.90272802 -.00000085  00000+0  84788-4 0  9995
2 65106  50.0011 226.5632 0008317 190.2787 169.7916 13.29321982 46375
HULIANWANG DIGUI-50     
1 65107U 25168B   26195.89432378 -.00000094  00000+0  65149-4 0  9990
2 65107  49.9981 226.4332 0008898 176.1783 183.9158 13.29321673 46371
HULIANWANG DIGUI-51     
1 65108U 25168C   26195.88562037 -.00000088  00000+0  76951-4 0  9992
2 65108  50.0018 226.4934 0010224 175.2438 184.8533 13.29324873 46379
HULIANWANG DIGUI-52     
1 65109U 25168D   26195.95270045 -.00000096  00000+0  59939-4 0  9992
2 65109  50.0012 226.1579 0010462 187.9998 172.0708 13.29322738 46383
HULIANWANG DIGUI-53     
1 65110U 25168E   26195.94417228 -.00000099  00000+0  54637-4 0  9992
2 65110  50.0019 226.1431 0008954 179.0475 181.0416 13.29326154 46386
HULIANWANG DIGUI-54     
1 65111U 25168F   26195.91930923 -.00000100  00000+0  51015-4 0  9992
2 65111  49.9970 225.8745 0010766 183.2827 176.7976 13.29326219 46380
HULIANWANG DIGUI-55     
1 65112U 25168G   26195.93591464 -.00000097  00000+0  57717-4 0  9998
2 65112  49.9975 225.9741 0011839 179.3061 180.7829 13.29322527 46381
HULIANWANG DIGUI-56     
1 65113U 25168H   26195.92762917 -.00000097  00000+0  57378-4 0  9994
2 65113  49.9967 225.9073 0011990 199.1198 160.9225 13.29321997 46380
HULIANWANG DIGUI-57     
1 65114U 25168J   26195.91098419 -.00000093  00000+0  66467-4 0  9998
2 65114  49.9995 225.9039 0009605 191.3534 168.7123 13.29326217 46396
HULIANWANG DIGUI-58     
1 65164U 25174A   26195.91717620  .00000065  00000+0  11622-3 0  9992
2 65164  86.4946 242.6476 0001805 100.4779 259.6559 13.24407355 44467
HULIANWANG DIGUI-59     
1 65165U 25174B   26195.92476909  .00000069  00000+0  12679-3 0  9993
2 65165  86.4907 242.5251 0001908  99.7373 260.3977 13.24407420 44465
