{"fetched_at":"2026-07-15T06:36:07.156Z","source":"https://celestrak.org/NORAD/elements/gp.php?NAME=HULIANWANG&FORMAT=JSON","constellation":"guowang","records":[{"OBJECT_NAME":"HULIANWANG DIGUI-44","OBJECT_ID":"2025-162E","EPOCH":"2026-07-14T22:46:32.073312","CLASSIFICATION_TYPE":"U","MEAN_MOTION":13.2931863,"ECCENTRICITY":0.00014265,"INCLINATION":49.9998,"RA_OF_ASC_NODE":166.1217,"ARG_OF_PERICENTER":328.8345,"MEAN_ANOMALY":31.2442,"EPHEMERIS_TYPE":0,"NORAD_CAT_ID":65047,"ELEMENT_SET_NO":999,"REV_AT_EPOCH":4706,"BSTAR":0.000005349425,"MEAN_MOTION_DOT":-0.00000122,"MEAN_MOTION_DDOT":0},{"OBJECT_NAME":"HULIANWANG DIGUI-45","OBJECT_ID":"2025-162F","EPOCH":"2026-07-14T22:34:41.492064","CLASSIFICATION_TYPE":"U","MEAN_MOTION":13.29327204,"ECCENTRICITY":0.00002646,"INCLINATION":50.0027,"RA_OF_ASC_NODE":166.1623,"ARG_OF_PERICENTER":316.1878,"MEAN_ANOMALY":43.8973,"EPHEMERIS_TYPE":0,"NORAD_CAT_ID":65048,"ELEMENT_SET_NO":999,"REV_AT_EPOCH":4705,"BSTAR":-0.00000277469,"MEAN_MOTION_DOT":-0.00000125,"MEAN_MOTION_DDOT":0},{"OBJECT_NAME":"HULIANWANG DIGUI-46","OBJECT_ID":"2025-162G","EPOCH":"2026-07-14T22:22:41.719584","CLASSIFICATION_TYPE":"U","MEAN_MOTION":13.29326987,"ECCENTRICITY":0.00002439,"INCLINATION":50.0046,"RA_OF_ASC_NODE":166.1691,"ARG_OF_PERICENTER":312.4411,"MEAN_ANOMALY":47.6441,"EPHEMERIS_TYPE":0,"NORAD_CAT_ID":65049,"ELEMENT_SET_NO":999,"REV_AT_EPOCH":4705,"BSTAR":-0.000001350865,"MEAN_MOTION_DOT":-0.00000125,"MEAN_MOTION_DDOT":0},{"OBJECT_NAME":"HULIANWANG DIGUI-47","OBJECT_ID":"2025-162H","EPOCH":"2026-07-14T22:10:40.121472","CLASSIFICATION_TYPE":"U","MEAN_MOTION":13.29326576,"ECCENTRICITY":0.00002673,"INCLINATION":50.0009,"RA_OF_ASC_NODE":166.0285,"ARG_OF_PERICENTER":301.8866,"MEAN_ANOMALY":58.198,"EPHEMERIS_TYPE":0,"NORAD_CAT_ID":65050,"ELEMENT_SET_NO":999,"REV_AT_EPOCH":4705,"BSTAR":-0.00000381596,"MEAN_MOTION_DOT":-0.00000126,"MEAN_MOTION_DDOT":0},{"OBJECT_NAME":"HULIANWANG DIGUI-48","OBJECT_ID":"2025-162J","EPOCH":"2026-07-14T21:58:37.994592","CLASSIFICATION_TYPE":"U","MEAN_MOTION":13.29327313,"ECCENTRICITY":0.00002757,"INCLINATION":50.002,"RA_OF_ASC_NODE":166.0121,"ARG_OF_PERICENTER":313.0354,"MEAN_ANOMALY":47.0495,"EPHEMERIS_TYPE":0,"NORAD_CAT_ID":65051,"ELEMENT_SET_NO":999,"REV_AT_EPOCH":4705,"BSTAR":0.000001358691,"MEAN_MOTION_DOT":-0.00000123,"MEAN_MOTION_DDOT":0},{"OBJECT_NAME":"HULIANWANG DIGUI-49","OBJECT_ID":"2025-168A","EPOCH":"2026-07-14T21:39:55.700928","CLASSIFICATION_TYPE":"U","MEAN_MOTION":13.29321982,"ECCENTRICITY":0.00083179,"INCLINATION":50.0011,"RA_OF_ASC_NODE":226.5632,"ARG_OF_PERICENTER":190.2787,"MEAN_ANOMALY":169.7916,"EPHEMERIS_TYPE":0,"NORAD_CAT_ID":65106,"ELEMENT_SET_NO":999,"REV_AT_EPOCH":4637,"BSTAR":0.000084787631,"MEAN_MOTION_DOT":-8.5e-7,"MEAN_MOTION_DDOT":0},{"OBJECT_NAME":"HULIANWANG DIGUI-50","OBJECT_ID":"2025-168B","EPOCH":"2026-07-14T21:27:49.574592","CLASSIFICATION_TYPE":"U","MEAN_MOTION":13.29321673,"ECCENTRICITY":0.00088986,"INCLINATION":49.9981,"RA_OF_ASC_NODE":226.4332,"ARG_OF_PERICENTER":176.1783,"MEAN_ANOMALY":183.9158,"EPHEMERIS_TYPE":0,"NORAD_CAT_ID":65107,"ELEMENT_SET_NO":999,"REV_AT_EPOCH":4637,"BSTAR":0.000065148809,"MEAN_MOTION_DOT":-9.4e-7,"MEAN_MOTION_DDOT":0},{"OBJECT_NAME":"HULIANWANG DIGUI-51","OBJECT_ID":"2025-168C","EPOCH":"2026-07-14T21:15:17.599968","CLASSIFICATION_TYPE":"U","MEAN_MOTION":13.29324873,"ECCENTRICITY":0.00102247,"INCLINATION":50.0018,"RA_OF_ASC_NODE":226.4934,"ARG_OF_PERICENTER":175.2438,"MEAN_ANOMALY":184.8533,"EPHEMERIS_TYPE":0,"NORAD_CAT_ID":65108,"ELEMENT_SET_NO":999,"REV_AT_EPOCH":4637,"BSTAR":0.000076951167,"MEAN_MOTION_DOT":-8.8e-7,"MEAN_MOTION_DDOT":0},{"OBJECT_NAME":"HULIANWANG DIGUI-52","OBJECT_ID":"2025-168D","EPOCH":"2026-07-14T22:51:53.318880","CLASSIFICATION_TYPE":"U","MEAN_MOTION":13.29322738,"ECCENTRICITY":0.00104627,"INCLINATION":50.0012,"RA_OF_ASC_NODE":226.1579,"ARG_OF_PERICENTER":187.9998,"MEAN_ANOMALY":172.0708,"EPHEMERIS_TYPE":0,"NORAD_CAT_ID":65109,"ELEMENT_SET_NO":999,"REV_AT_EPOCH":4638,"BSTAR":0.000059938606,"MEAN_MOTION_DOT":-9.6e-7,"MEAN_MOTION_DDOT":0},{"OBJECT_NAME":"HULIANWANG DIGUI-53","OBJECT_ID":"2025-168E","EPOCH":"2026-07-14T22:39:36.484992","CLASSIFICATION_TYPE":"U","MEAN_MOTION":13.29326154,"ECCENTRICITY":0.00089547,"INCLINATION":50.0019,"RA_OF_ASC_NODE":226.1431,"ARG_OF_PERICENTER":179.0475,"MEAN_ANOMALY":181.0416,"EPHEMERIS_TYPE":0,"NORAD_CAT_ID":65110,"ELEMENT_SET_NO":999,"REV_AT_EPOCH":4638,"BSTAR":0.000054637332,"MEAN_MOTION_DOT":-9.9e-7,"MEAN_MOTION_DDOT":0},{"OBJECT_NAME":"HULIANWANG DIGUI-54","OBJECT_ID":"2025-168F","EPOCH":"2026-07-14T22:03:48.317472","CLASSIFICATION_TYPE":"U","MEAN_MOTION":13.29326219,"ECCENTRICITY":0.00107668,"INCLINATION":49.997,"RA_OF_ASC_NODE":225.8745,"ARG_OF_PERICENTER":183.2827,"MEAN_ANOMALY":176.7976,"EPHEMERIS_TYPE":0,"NORAD_CAT_ID":65111,"ELEMENT_SET_NO":999,"REV_AT_EPOCH":4638,"BSTAR":0.000051015223,"MEAN_MOTION_DOT":-0.000001,"MEAN_MOTION_DDOT":0},{"OBJECT_NAME":"HULIANWANG DIGUI-55","OBJECT_ID":"2025-168G","EPOCH":"2026-07-14T22:27:43.024896","CLASSIFICATION_TYPE":"U","MEAN_MOTION":13.29322527,"ECCENTRICITY":0.00118395,"INCLINATION":49.9975,"RA_OF_ASC_NODE":225.9741,"ARG_OF_PERICENTER":179.3061,"MEAN_ANOMALY":180.7829,"EPHEMERIS_TYPE":0,"NORAD_CAT_ID":65112,"ELEMENT_SET_NO":999,"REV_AT_EPOCH":4638,"BSTAR":0.000057716877,"MEAN_MOTION_DOT":-9.7e-7,"MEAN_MOTION_DDOT":0},{"OBJECT_NAME":"HULIANWANG DIGUI-56","OBJECT_ID":"2025-168H","EPOCH":"2026-07-14T22:15:47.160288","CLASSIFICATION_TYPE":"U","MEAN_MOTION":13.29321997,"ECCENTRICITY":0.00119905,"INCLINATION":49.9967,"RA_OF_ASC_NODE":225.9073,"ARG_OF_PERICENTER":199.1198,"MEAN_ANOMALY":160.9225,"EPHEMERIS_TYPE":0,"NORAD_CAT_ID":65113,"ELEMENT_SET_NO":999,"REV_AT_EPOCH":4638,"BSTAR":0.000057377928,"MEAN_MOTION_DOT":-9.7e-7,"MEAN_MOTION_DDOT":0},{"OBJECT_NAME":"HULIANWANG DIGUI-57","OBJECT_ID":"2025-168J","EPOCH":"2026-07-14T21:51:49.034016","CLASSIFICATION_TYPE":"U","MEAN_MOTION":13.29326217,"ECCENTRICITY":0.00096059,"INCLINATION":49.9995,"RA_OF_ASC_NODE":225.9039,"ARG_OF_PERICENTER":191.3534,"MEAN_ANOMALY":168.7123,"EPHEMERIS_TYPE":0,"NORAD_CAT_ID":65114,"ELEMENT_SET_NO":999,"REV_AT_EPOCH":4639,"BSTAR":0.000066466933,"MEAN_MOTION_DOT":-9.3e-7,"MEAN_MOTION_DDOT":0},{"OBJECT_NAME":"HULIANWANG DIGUI-58","OBJECT_ID":"2025-174A","EPOCH":"2026-07-14T22:00:44.023680","CLASSIFICATION_TYPE":"U","MEAN_MOTION":13.24407355,"ECCENTRICITY":0.0001805,"INCLINATION":86.4946,"RA_OF_ASC_NODE":242.6476,"ARG_OF_PERICENTER":100.4779,"MEAN_ANOMALY":259.6559,"EPHEMERIS_TYPE":0,"NORAD_CAT_ID":65164,"ELEMENT_SET_NO":999,"REV_AT_EPOCH":4446,"BSTAR":0.00011622215,"MEAN_MOTION_DOT":6.5e-7,"MEAN_MOTION_DDOT":0},{"OBJECT_NAME":"HULIANWANG DIGUI-59","OBJECT_ID":"2025-174B","EPOCH":"2026-07-14T22:11:40.049376","CLASSIFICATION_TYPE":"U","MEAN_MOTION":13.2440742,"ECCENTRICITY":0.00019081,"INCLINATION":86.4907,"RA_OF_ASC_NODE":242.5251,"ARG_OF_PERICENTER":99.7373,"MEAN_ANOMALY":260.3977,"EPHEMERIS_TYPE":0,"NORAD_CAT_ID":65165,"ELEMENT_SET_NO":999,"REV_AT_EPOCH":4446,"BSTAR":0.00012678798,"MEAN_MOTION_DOT":6.9e-7,"MEAN_MOTION_DDOT":0}]}
